CTC1_L_00590001-01
1 10000U 26707JA  26075.70039352  .00000000  00000+0  00000-0 0  9991
2 10000  60.0000   0.0000 0000000   0.0000   0.0000  6.30405269    15
CTC1_L_00590001-02
1 10001U 22615RA  26075.70039352  .00000000  00000+0  00000-0 0  9996
2 10001  60.0000   0.0000 0000000   0.0000  36.0000  6.30405269    15
CTC1_L_00590001-03
1 10002U 23539YN  26075.70039352  .00000000  00000+0  00000-0 0  9993
2 10002  60.0000   0.0000 0000000   0.0000  72.0000  6.30405269    16
CTC1_L_00590001-04
1 10003U 25991HJ  26075.70039352  .00000000  00000+0  00000-0 0  9998
2 10003  60.0000   0.0000 0000000   0.0000 108.0000  6.30405269    17
CTC1_L_00590001-05
1 10004U 25613VI  26075.70039352  .00000000  00000+0  00000-0 0  9990
2 10004  60.0000   0.0000 0000000   0.0000 144.0000  6.30405269    18
CTC1_L_00590001-06
1 10005U 25021VF  26075.70039352  .00000000  00000+0  00000-0 0  9994
2 10005  60.0000   0.0000 0000000   0.0000 180.0000  6.30405269    19
CTC1_L_00590001-07
1 10006U 25917GS  26075.70039352  .00000000  00000+0  00000-0 0  9999
2 10006  60.0000   0.0000 0000000   0.0000 216.0000  6.30405269    10
CTC1_L_00590001-08
1 10007U 25922YW  26075.70039352  .00000000  00000+0  00000-0 0  9996
2 10007  60.0000   0.0000 0000000   0.0000 252.0000  6.30405269    11
CTC1_L_00590001-09
1 10008U 26501YA  26075.70039352  .00000000  00000+0  00000-0 0  9991
2 10008  60.0000   0.0000 0000000   0.0000 288.0000  6.30405269    11
CTC1_L_00590001-10
1 10009U 25156PA  26075.70039352  .00000000  00000+0  00000-0 0  9997
2 10009  60.0000   0.0000 0000000   0.0000 324.0000  6.30405269    13
CTC1_L_00590002-01
1 10010U 23954VK  26075.70039352  .00000000  00000+0  00000-0 0  9993
2 10010  60.0000  30.0000 0000000   0.0000  12.0000  6.30405269    12
CTC1_L_00590002-02
1 10011U 25355OB  26075.70039352  .00000000  00000+0  00000-0 0  9991
2 10011  60.0000  30.0000 0000000   0.0000  48.0000  6.30405269    12
CTC1_L_00590002-03
1 10012U 22270VJ  26075.70039352  .00000000  00000+0  00000-0 0  9995
2 10012  60.0000  30.0000 0000000   0.0000  84.0000  6.30405269    13
CTC1_L_00590002-04
1 10013U 26736LJ  26075.70039352  .00000000  00000+0  00000-0 0  9997
2 10013  60.0000  30.0000 0000000   0.0000 120.0000  6.30405269    15
CTC1_L_00590002-05
1 10014U 25177BI  26075.70039352  .00000000  00000+0  00000-0 0  9996
2 10014  60.0000  30.0000 0000000   0.0000 156.0000  6.30405269    15
CTC1_L_00590002-06
1 10015U 23351BS  26075.70039352  .00000000  00000+0  00000-0 0  9999
2 10015  60.0000  30.0000 0000000   0.0000 192.0000  6.30405269    16
CTC1_L_00590002-07
1 10016U 22898VZ  26075.70039352  .00000000  00000+0  00000-0 0  9995
2 10016  60.0000  30.0000 0000000   0.0000 228.0000  6.30405269    17
CTC1_L_00590002-08
1 10017U 24958CP  26075.70039352  .00000000  00000+0  00000-0 0  9995
2 10017  60.0000  30.0000 0000000   0.0000 264.0000  6.30405269    18
CTC1_L_00590002-09
1 10018U 23677UG  26075.70039352  .00000000  00000+0  00000-0 0  9993
2 10018  60.0000  30.0000 0000000   0.0000 300.0000  6.30405269    10
CTC1_L_00590002-10
1 10019U 24337YE  26075.70039352  .00000000  00000+0  00000-0 0  9998
2 10019  60.0000  30.0000 0000000   0.0000 336.0000  6.30405269    10
CTC1_L_00590003-01
1 10020U 25559PK  26075.70039352  .00000000  00000+0  00000-0 0  9997
2 10020  60.0000  60.0000 0000000   0.0000  24.0000  6.30405269    19
CTC1_L_00590003-02
1 10021U 26733GF  26075.70039352  .00000000  00000+0  00000-0 0  9993
2 10021  60.0000  60.0000 0000000   0.0000  60.0000  6.30405269    10
CTC1_L_00590003-03
1 10022U 26785BQ  26075.70039352  .00000000  00000+0  00000-0 0  9991
2 10022  60.0000  60.0000 0000000   0.0000  96.0000  6.30405269    10
CTC1_L_00590003-04
1 10023U 25077SU  26075.70039352  .00000000  00000+0  00000-0 0  9995
2 10023  60.0000  60.0000 0000000   0.0000 132.0000  6.30405269    12
CTC1_L_00590003-05
1 10024U 25700CS  26075.70039352  .00000000  00000+0  00000-0 0  9999
2 10024  60.0000  60.0000 0000000   0.0000 168.0000  6.30405269    12
CTC1_L_00590003-06
1 10025U 25540WB  26075.70039352  .00000000  00000+0  00000-0 0  9992
2 10025  60.0000  60.0000 0000000   0.0000 204.0000  6.30405269    14
CTC1_L_00590003-07
1 10026U 23627ZG  26075.70039352  .00000000  00000+0  00000-0 0  9997
2 10026  60.0000  60.0000 0000000   0.0000 240.0000  6.30405269    15
CTC1_L_00590003-08
1 10027U 22930FH  26075.70039352  .00000000  00000+0  00000-0 0  9994
2 10027  60.0000  60.0000 0000000   0.0000 276.0000  6.30405269    15
CTC1_L_00590003-09
1 10028U 24963D   26075.70039352  .00000000  00000+0  00000-0 0  9993
2 10028  60.0000  60.0000 0000000   0.0000 312.0000  6.30405269    17
CTC1_L_00590003-10
1 10029U 24068SN  26075.70039352  .00000000  00000+0  00000-0 0  9990
2 10029  60.0000  60.0000 0000000   0.0000 348.0000  6.30405269    17
CTC1_L_00590004-01
1 10030U 25274CV  26075.70039352  .00000000  00000+0  00000-0 0  9992
2 10030  60.0000  90.0000 0000000   0.0000  36.0000  6.30405269    16
CTC1_L_00590004-02
1 10031U 24314UF  26075.70039352  .00000000  00000+0  00000-0 0  9997
2 10031  60.0000  90.0000 0000000   0.0000  72.0000  6.30405269    17
CTC1_L_00590004-03
1 10032U 25304ND  26075.70039352  .00000000  00000+0  00000-0 0  9998
2 10032  60.0000  90.0000 0000000   0.0000 108.0000  6.30405269    18
CTC1_L_00590004-04
1 10033U 22740WK  26075.70039352  .00000000  00000+0  00000-0 0  9990
2 10033  60.0000  90.0000 0000000   0.0000 144.0000  6.30405269    19
CTC1_L_00590004-05
1 10034U 23994LX  26075.70039352  .00000000  00000+0  00000-0 0  9993
2 10034  60.0000  90.0000 0000000   0.0000 180.0000  6.30405269    10
CTC1_L_00590004-06
1 10035U 23412YS  26075.70039352  .00000000  00000+0  00000-0 0  9999
2 10035  60.0000  90.0000 0000000   0.0000 216.0000  6.30405269    11
CTC1_L_00590004-07
1 10036U 24178GC  26075.70039352  .00000000  00000+0  00000-0 0  9990
2 10036  60.0000  90.0000 0000000   0.0000 252.0000  6.30405269    12
CTC1_L_00590004-08
1 10037U 26012YK  26075.70039352  .00000000  00000+0  00000-0 0  9990
2 10037  60.0000  90.0000 0000000   0.0000 288.0000  6.30405269    12
CTC1_L_00590004-09
1 10038U 26877AM  26075.70039352  .00000000  00000+0  00000-0 0  9990
2 10038  60.0000  90.0000 0000000   0.0000 324.0000  6.30405269    14
CTC1_L_00590004-10
1 10039U 26359MV  26075.70039352  .00000000  00000+0  00000-0 0  9996
2 10039  60.0000  90.0000 0000000   0.0000   0.0000  6.30405269    16
CTC1_L_00590005-01
1 10040U 25576JP  26075.70039352  .00000000  00000+0  00000-0 0  9998
2 10040  60.0000 120.0000 0000000   0.0000  48.0000  6.30405269    14
CTC1_L_00590005-02
1 10041U 24441CR  26075.70039352  .00000000  00000+0  00000-0 0  9999
2 10041  60.0000 120.0000 0000000   0.0000  84.0000  6.30405269    15
CTC1_L_00590005-03
1 10042U 22598SJ  26075.70039352  .00000000  00000+0  00000-0 0  9991
2 10042  60.0000 120.0000 0000000   0.0000 120.0000  6.30405269    17
CTC1_L_00590005-04
1 10043U 22235W   26075.70039352  .00000000  00000+0  00000-0 0  9990
2 10043  60.0000 120.0000 0000000   0.0000 156.0000  6.30405269    17
CTC1_L_00590005-05
1 10044U 23213VZ  26075.70039352  .00000000  00000+0  00000-0 0  9998
2 10044  60.0000 120.0000 0000000   0.0000 192.0000  6.30405269    18
CTC1_L_00590005-06
1 10045U 26429DO  26075.70039352  .00000000  00000+0  00000-0 0  9991
2 10045  60.0000 120.0000 0000000   0.0000 228.0000  6.30405269    19
CTC1_L_00590005-07
1 10046U 24832JS  26075.70039352  .00000000  00000+0  00000-0 0  9998
2 10046  60.0000 120.0000 0000000   0.0000 264.0000  6.30405269    10
CTC1_L_00590005-08
1 10047U 24089TA  26075.70039352  .00000000  00000+0  00000-0 0  9993
2 10047  60.0000 120.0000 0000000   0.0000 300.0000  6.30405269    12
CTC1_L_00590005-09
1 10048U 25211CZ  26075.70039352  .00000000  00000+0  00000-0 0  9992
2 10048  60.0000 120.0000 0000000   0.0000 336.0000  6.30405269    12
CTC1_L_00590005-10
1 10049U 24460GD  26075.70039352  .00000000  00000+0  00000-0 0  9998
2 10049  60.0000 120.0000 0000000   0.0000  12.0000  6.30405269    14
CTC1_L_00590006-01
1 10050U 23512LB  26075.70039352  .00000000  00000+0  00000-0 0  9997
2 10050  60.0000 150.0000 0000000   0.0000  60.0000  6.30405269    12
CTC1_L_00590006-02
1 10051U 25668GG  26075.70039352  .00000000  00000+0  00000-0 0  9992
2 10051  60.0000 150.0000 0000000   0.0000  96.0000  6.30405269    12
CTC1_L_00590006-03
1 10052U 24062IC  26075.70039352  .00000000  00000+0  00000-0 0  9990
2 10052  60.0000 150.0000 0000000   0.0000 132.0000  6.30405269    14
CTC1_L_00590006-04
1 10053U 25213LZ  26075.70039352  .00000000  00000+0  00000-0 0  9990
2 10053  60.0000 150.0000 0000000   0.0000 168.0000  6.30405269    14
CTC1_L_00590006-05
1 10054U 24179XA  26075.70039352  .00000000  00000+0  00000-0 0  9991
2 10054  60.0000 150.0000 0000000   0.0000 204.0000  6.30405269    16
CTC1_L_00590006-06
1 10055U 22710VF  26075.70039352  .00000000  00000+0  00000-0 0  9991
2 10055  60.0000 150.0000 0000000   0.0000 240.0000  6.30405269    17
CTC1_L_00590006-07
1 10056U 23296AD  26075.70039352  .00000000  00000+0  00000-0 0  9992
2 10056  60.0000 150.0000 0000000   0.0000 276.0000  6.30405269    17
CTC1_L_00590006-08
1 10057U 24597LN  26075.70039352  .00000000  00000+0  00000-0 0  9998
2 10057  60.0000 150.0000 0000000   0.0000 312.0000  6.30405269    19
CTC1_L_00590006-09
1 10058U 25598RN  26075.70039352  .00000000  00000+0  00000-0 0  9991
2 10058  60.0000 150.0000 0000000   0.0000 348.0000  6.30405269    19
CTC1_L_00590006-10
1 10059U 23723ZK  26075.70039352  .00000000  00000+0  00000-0 0  9990
2 10059  60.0000 150.0000 0000000   0.0000  24.0000  6.30405269    11
CTC1_L_00590007-01
1 10060U 26699OE  26075.70039352  .00000000  00000+0  00000-0 0  9997
2 10060  60.0000 180.0000 0000000   0.0000  72.0000  6.30405269    19
CTC1_L_00590007-02
1 10061U 24314RC  26075.70039352  .00000000  00000+0  00000-0 0  9990
2 10061  60.0000 180.0000 0000000   0.0000 108.0000  6.30405269    10
